ONEWEB-0709             
1 55172U 23004AJ  25103.95869872 -.00000511  00000+0 -14767-2 0  9999
2 55172  87.8792 106.6601 0001043  94.9110 265.2137 13.11418645109623
ONEWEB-0710             
1 55173U 23004AK  25104.39223249  .00001691  00000+0  43223-2 0  9998
2 55173  87.9014  91.2814 0001972  92.2742 267.8616 13.17641254111117
ONEWEB-0711             
1 55174U 23004AL  25103.70100912  .00000169  00000+0  44184-3 0  9991
2 55174  87.8790 106.6797 0002543 106.0662 254.0746 13.11416419109542
ONEWEB-0713             
1 55175U 23004AM  25103.56704540 -.00000569  00000+0 -16421-2 0  9991
2 55175  87.8791 106.7141 0002169  97.0914 263.0461 13.11417263109510
ONEWEB-0715             
1 55176U 23004AN  25104.24862882 -.00000212  00000+0 -63302-3 0  9998
2 55176  87.8789 106.5785 0001673  97.6316 262.5002 13.11413671109650
ONEWEB-0716             
1 55177U 23004AP  25104.38546619  .00000097  00000+0  21633-3 0  9991
2 55177  87.9011  91.2806 0002093  81.6651 278.4718 13.17651320111111
ONEWEB-0717             
1 55178U 23004AQ  25103.91299051  .00000033  00000+0  52279-4 0  9996
2 55178  87.9012  91.3346 0002316 107.5925 252.5459 13.17647231111103
ONEWEB-0719             
1 55179U 23004AR  25103.69531162  .00000013  00000+0  96576-6 0  9992
2 55179  87.9009  91.3627 0002189  84.2540 275.8841 13.17647772111028
ONEWEB-0530             
1 55796U 23029A   25103.70095559  .00000019  00000+0  15766-4 0  9997
2 55796  87.9327 359.9844 0002260  91.7158 268.4234 13.20773682105164
ONEWEB-0534             
1 55797U 23029B   25103.68833016 -.00000011  00000+0 -59488-4 0  9996
2 55797  87.9329 359.9942 0001888  76.6012 283.5332 13.20773338104458
ONEWEB-0556             
1 55798U 23029C   25104.14919204  .00000051  00000+0  93036-4 0  9992
2 55798  87.9326 359.8953 0002662  77.9204 282.2227 13.20771646105208
ONEWEB-0562             
1 55799U 23029D   25103.60627078 -.00000015  00000+0 -69021-4 0  9997
2 55799  87.9326 359.9953 0002752  90.6629 269.4820 13.20771213104444
ONEWEB-0563             
1 55800U 23029E   25103.67571219  .00000022  00000+0  22268-4 0  9990
2 55800  87.9327 359.9962 0001892  70.1851 289.9486 13.20772009104441
ONEWEB-0564             
1 55801U 23029F   25103.44213593  .00000079  00000+0  16231-3 0  9998
2 55801  87.9329   0.0308 0002161  87.9537 272.1843 13.20771836104425
ONEWEB-0638             
1 55802U 23029G   25104.46934794 -.00000412  00000+0 -11448-2 0  9992
2 55802  87.9095  15.0283 0002408  76.4379 283.7019 13.14502346103787
ONEWEB-0639             
1 55803U 23029H   25103.75722900  .00000076  00000+0  15631-3 0  9991
2 55803  87.9258  30.3366 0001871  42.7911 317.3367 13.19724887102265
ONEWEB-0640             
1 55804U 23029J   25103.48933027  .00000026  00000+0  36072-4 0  9994
2 55804  87.9091  15.2119 0002464  66.8353 293.3036 13.14501239102967
ONEWEB-0641             
1 55805U 23029K   25103.52503782  .00000066  00000+0  13209-3 0  9991
2 55805  87.9254  30.3565 0001829  72.4977 287.6356 13.19724483102246
ONEWEB-0642             
1 55806U 23029L   25103.74775112  .00000048  00000+0  88762-4 0  9991
2 55806  87.9258  30.3469 0001535  49.0477 311.0788 13.19724432102260
ONEWEB-0643             
1 55807U 23029M   25103.68755474 -.00000014  00000+0 -72958-4 0  9999
2 55807  87.9097  15.1540 0001170  62.9101 297.2148 13.14501466102963
ONEWEB-0644             
1 55808U 23029N   25104.50118480  .00000122  00000+0  27131-3 0  9992
2 55808  87.9265  30.1998 0001591  63.1047 297.0248 13.19725025103058
ONEWEB-0645             
1 55809U 23029P   25104.49725335  .00000120  00000+0  26691-3 0  9992
2 55809  87.9262  30.1975 0002033  68.0071 292.1277 13.19728962103055
ONEWEB-0646             
1 55810U 23029Q   25103.54161040 -.00000019  00000+0 -79916-4 0  9994
2 55810  87.9259  30.3816 0001660  73.3805 286.7510 13.19728631102228
ONEWEB-0648             
1 55811U 23029R   25103.73196365  .00000235  00000+0  59834-3 0  9998
2 55811  87.9095  15.1199 0001967  48.5100 311.6198 13.14502554102975
ONEWEB-0649             
1 55812U 23029S   25104.49012542  .00000059  00000+0  11617-3 0  9998
2 55812  87.9259  30.1840 0001866  63.0313 297.1011 13.19724869103078
ONEWEB-0650             
1 55813U 23029T   25103.72722043  .00000068  00000+0  13696-3 0  9997
2 55813  87.9260  30.3433 0001794  73.3297 286.8033 13.19724517102254
ONEWEB-0652             
1 55814U 23029U   25104.16963168 -.00000112  00000+0 -33719-3 0  9992
2 55814  87.9095  15.0434 0001886  83.1400 276.9944 13.14504460103697
ONEWEB-0653             
1 55815U 23029V   25103.46871519 -.00000195  00000+0 -56118-3 0  9992
2 55815  87.9100  15.1699 0002102  79.7807 280.3559 13.14500761102941
ONEWEB-0654             
1 55816U 23029W   25104.14901811 -.00000033  00000+0 -12469-3 0  9990
2 55816  87.9097  15.0373 0002142  88.3590 271.7785 13.14500759103745
ONEWEB-0656             
1 55817U 23029X   25103.66307523  .00000047  00000+0  83123-4 0  9996
2 55817  87.9327 359.9280 0002135  92.4153 267.7225 13.20775138104457
ONEWEB-0657             
1 55818U 23029Y   25103.79828950  .00000030  00000+0  41389-4 0  9993
2 55818  87.9258  30.3341 0001580 104.4087 255.7221 13.19723070102279
ONEWEB-0658             
1 55819U 23029Z   25103.49029401  .00000014  00000+0  36763-5 0  9998
2 55819  87.9257  30.3291 0001615  64.7413 295.3887 13.19724652102245
ONEWEB-0660             
1 55820U 23029AA  25103.51788149  .00000191  00000+0  48085-3 0  9998
2 55820  87.9094  15.1343 0002054  68.6951 291.4398 13.14501164102951
ONEWEB-0661             
1 55821U 23029AB  25103.78111278 -.00000180  00000+0 -51922-3 0  9995
2 55821  87.9098  15.1519 0002099  70.8290 289.3067 13.14500803103668
ONEWEB-0662             
1 55822U 23029AC  25104.50106233  .00000275  00000+0  70644-3 0  9997
2 55822  87.9094  15.0164 0001973  68.6414 291.4926 13.14501280103829
ONEWEB-0663             
1 55823U 23029AD  25103.72308630  .00000114  00000+0  24750-3 0  9995
2 55823  87.9328 359.9728 0001914  66.7828 293.3507 13.20833354105138
ONEWEB-0664             
1 55824U 23029AE  25103.72621996  .00000118  00000+0  25920-3 0  9993
2 55824  87.9329 359.9915 0002291  80.7335 279.4057 13.20771344104455
ONEWEB-0665             
1 55825U 23029AF  25104.46300344 -.00000245  00000+0 -69601-3 0  9994
2 55825  87.9097  14.9916 0001897  70.2248 289.9086 13.14502349103777
ONEWEB-0666             
1 55826U 23029AG  25104.17444730  .00000070  00000+0  13917-3 0  9994
2 55826  87.9328 359.8919 0001946  92.9561 267.1795 13.20770766105205
ONEWEB-0667             
1 55827U 23029AH  25104.16813050  .00000049  00000+0  88182-4 0  9992
2 55827  87.9327 359.8251 0002002  73.5078 286.6275 13.20770895105196
ONEWEB-0669             
1 55828U 23029AJ  25103.63310193  .00000025  00000+0  30448-4 0  9990
2 55828  87.9328 359.9674 0002416  93.6117 266.5292 13.20771265104449
ONEWEB-0670             
1 55829U 23029AK  25104.44080940  .00000234  00000+0  59708-3 0  9996
2 55829  87.9099  15.0118 0002213  72.3052 287.8319 13.14501714103791
ONEWEB-0671             
1 55830U 23029AL  25104.54700726  .00000021  00000+0  20970-4 0  9994
2 55830  87.9257  30.1797 0002066  74.1694 285.9666 13.19725870103057
ONEWEB-0672             
1 55831U 23029AM  25104.15866315  .00000131  00000+0  28916-3 0  9998
2 55831  87.9327 359.8485 0001851  90.8235 269.3111 13.20771015105190
ONEWEB-0673             
1 55832U 23029AN  25104.22003051  .00000124  00000+0  27726-3 0  9997
2 55832  87.9256  30.2085 0001749  72.4831 287.6493 13.19724798103033
ONEWEB-0674             
1 55833U 23029AP  25103.64791877  .00000052  00000+0  10668-3 0  9990
2 55833  87.9093  15.1589 0002354  73.4528 286.6860 13.14502264102988
ONEWEB-0675             
1 55834U 23029AQ  25103.85673417  .00000053  00000+0  98854-4 0  9998
2 55834  87.9262  30.3262 0001634  84.0791 276.0528 13.19723915103005
ONEWEB-0720             
1 55835U 23029AR  25103.54555895 -.00000880  00000+0 -22313-2 0  9999
2 55835  87.9259  30.3849 0001836  65.1393 294.9930 13.19731488102868
ONEWEB-0537             
1 56046U 23043A   25103.81176847  .00000139  00000+0  33021-3 0  9990
2 56046  87.9034 314.3525 0001623  93.7341 266.3976 13.16595144102467
ONEWEB-0538             
1 56047U 23043B   25104.03343278  .00000154  00000+0  36994-3 0  9999
2 56047  87.9033 314.3304 0001428  86.2374 273.8920 13.16594733103419
ONEWEB-0546             
1 56048U 23043C   25104.02075700  .00000070  00000+0  15001-3 0  9994
2 56048  87.9034 314.3015 0001936 111.4226 248.7112 13.16593987103404
ONEWEB-0547             
1 56049U 23043D   25104.58070390  .00000043  00000+0  71871-4 0  9994
2 56049  87.9276 329.4548 0001570  80.7722 279.3589 13.21825905102517
ONEWEB-0548             
1 56050U 23043E   25104.12209130  .00000085  00000+0  18954-3 0  9990
2 56050  87.9034 314.3223 0002234  81.8156 278.3228 13.16596364103412
ONEWEB-0549             
1 56051U 23043F   25103.58797429  .00000082  00000+0  16705-3 0  9992
2 56051  87.9286 329.6549 0001469  76.1999 283.9298 13.21824641101474
ONEWEB-0550             
1 56052U 23043G   25103.65107273  .00001785  00000+0  42894-2 0  9991
2 56052  87.9288 329.6396 0001886  85.1387 274.9962 13.21819032101488
ONEWEB-0551             
1 56053U 23043H   25104.42006503  .00000194  00000+0  48026-3 0  9999
2 56053  87.9100 344.6801 0001640  73.9259 286.2052 13.15550698100939
ONEWEB-0552             
1 56054U 23043J   25104.09892784  .00000117  00000+0  25104-3 0  9994
2 56054  87.9281 329.5593 0001851  73.0156 287.1181 13.21825080102450
ONEWEB-0553             
1 56055U 23043K   25104.33110958  .00000038  00000+0  65751-4 0  9993
2 56055  87.9032 314.2683 0001971  99.1760 260.9594 13.16595074103458
ONEWEB-0554             
1 56056U 23043L   25104.01442970  .00000103  00000+0  23693-3 0  9992
2 56056  87.9032 314.3603 0002057  85.4148 274.7218 13.16594214103390
